KIZUNA (WINDS)          
1 32500U 08007A   17345.86639693 -.00000265  00000-0  00000-0 0  9999
2 32500   1.2095  89.2376 0002374 169.8299 276.6118  1.00271369 35721
